{"type": "FeatureCollection", "features": [ {"type": "Feature", "properties": {"norad_id": 66456, "name": "STARLINK-35643", "group": "last-30-days", "lat": 38.8251881394567, "lon": -167.69956118612825, "alt_km": 367.1049382518959, "timestamp": "2025-12-02T06:27:51.801011+00:00", "meta": {"OBJECT_NAME": "STARLINK-35643", "OBJECT_ID": "2025-262A", "EPOCH": "2025-12-01T20:00:01.999008", "MEAN_MOTION": 15.6729493, "ECCENTRICITY": 0.0001409, "INCLINATION": 42.999, "RA_OF_ASC_NODE": 135.1844, "ARG_OF_PERICENTER": 282.9514, "MEAN_ANOMALY": 202.5194, "EPHEMERIS_TYPE": 0, "CLASSIFICATION_TYPE": "U", "NORAD_CAT_ID": 66456, "ELEMENT_SET_NO": 999, "REV_AT_EPOCH": 388, "BSTAR": -0.021033, "MEAN_MOTION_DOT": -0.02045753, "MEAN_MOTION_DDOT": 0}, "tle": {"line1": "1 66456U 25262A   25335.83335647 -.02045753  00000+0 -21033-1 0  9998", "line2": "2 66456  42.9990 135.1844 0001409 282.9514 202.5194 15.67294930  3881"}}, "geometry": {"type": "Point", "coordinates": [-167.69956118612825, 38.8251881394567]}}, {"type": "Feature", "properties": {"norad_id": 66457, "name": "STARLINK-35466", "group": "last-30-days", "lat": 40.050526608808475, "lon": -162.9993324143589, "alt_km": 366.81819918576093, "timestamp": "2025-12-02T06:27:51.801021+00:00", "meta": {"OBJECT_NAME": "STARLINK-35466", "OBJECT_ID": "2025-262B", "EPOCH": "2025-12-01T20:00:01.999008", "MEAN_MOTION": 15.67287379, "ECCENTRICITY": 0.0001348, "INCLINATION": 42.9992, "RA_OF_ASC_NODE": 135.1747, "ARG_OF_PERICENTER": 288.7442, "MEAN_ANOMALY": 200.5601, "EPHEMERIS_TYPE": 0, "CLASSIFICATION_TYPE": "U", "NORAD_CAT_ID": 66457, "ELEMENT_SET_NO": 999, "REV_AT_EPOCH": 388, "BSTAR": -0.02089, "MEAN_MOTION_DOT": -0.02032999, "MEAN_MOTION_DDOT": 0}, "tle": {"line1": "1 66457U 25262B   25335.83335647 -.02032999  00000+0 -20890-1 0  9997", "line2": "2 66457  42.9992 135.1747 0001348 288.7442 200.5601 15.67287379  3882"}}, "geometry": {"type": "Point", "coordinates": [-162.9993324143589, 40.050526608808475]}}, {"type": "Feature", "properties": {"norad_id": 66458, "name": "STARLINK-35684", "group": "last-30-days", "lat": 39.46155486045969, "lon": -165.3703522319113, "alt_km": 367.013635104513, "timestamp": "2025-12-02T06:27:51.801031+00:00", "meta": {"OBJECT_NAME": "STARLINK-35684", "OBJECT_ID": "2025-262C", "EPOCH": "2025-12-01T20:00:01.999008", "MEAN_MOTION": 15.67299093, "ECCENTRICITY": 0.0001441, "INCLINATION": 42.999, "RA_OF_ASC_NODE": 135.1792, "ARG_OF_PERICENTER": 285.3441, "MEAN_ANOMALY": 202.0404, "EPHEMERIS_TYPE": 0, "CLASSIFICATION_TYPE": "U", "NORAD_CAT_ID": 66458, "ELEMENT_SET_NO": 999, "REV_AT_EPOCH": 388, "BSTAR": -0.021089, "MEAN_MOTION_DOT": -0.02050855, "MEAN_MOTION_DDOT": 0}, "tle": {"line1": "1 66458U 25262C   25335.83335647 -.02050855  00000+0 -21089-1 0  9990", "line2": "2 66458  42.9990 135.1792 0001441 285.3441 202.0404 15.67299093  3881"}}, "geometry": {"type": "Point", "coordinates": [-165.3703522319113, 39.46155486045969]}}, {"type": "Feature", "properties": {"norad_id": 66459, "name": "STARLINK-35449", "group": "last-30-days", "lat": 40.58993580410423, "lon": -160.58790011422786, "alt_km": 366.8471628130292, "timestamp": "2025-12-02T06:27:51.801043+00:00", "meta": {"OBJECT_NAME": "STARLINK-35449", "OBJECT_ID": "2025-262D", "EPOCH": "2025-12-01T20:00:01.999008", "MEAN_MOTION": 15.67298732, "ECCENTRICITY": 0.0001394, "INCLINATION": 42.9988, "RA_OF_ASC_NODE": 135.1693, "ARG_OF_PERICENTER": 286.248, "MEAN_ANOMALY": 204.9708, "EPHEMERIS_TYPE": 0, "CLASSIFICATION_TYPE": "U", "NORAD_CAT_ID": 66459, "ELEMENT_SET_NO": 999, "REV_AT_EPOCH": 388, "BSTAR": -0.021077, "MEAN_MOTION_DOT": -0.02049748, "MEAN_MOTION_DDOT": 0}, "tle": {"line1": "1 66459U 25262D   25335.83335647 -.02049748  00000+0 -21077-1 0  9997", "line2": "2 66459  42.9988 135.1693 0001394 286.2480 204.9708 15.67298732  3886"}}, "geometry": {"type": "Point", "coordinates": [-160.58790011422786, 40.58993580410423]}}, {"type": "Feature", "properties": {"norad_id": 66460, "name": "STARLINK-35424", "group": "last-30-days", "lat": 41.07839963641847, "lon": -158.14008655399948, "alt_km": 366.86584118207065, "timestamp": "2025-12-02T06:27:51.801053+00:00", "meta": {"OBJECT_NAME": "STARLINK-35424", "OBJECT_ID": "2025-262E", "EPOCH": "2025-12-01T20:00:01.999008", "MEAN_MOTION": 15.67291476, "ECCENTRICITY": 0.0001421, "INCLINATION": 42.999, "RA_OF_ASC_NODE": 135.1648, "ARG_OF_PERICENTER": 281.8222, "MEAN_ANOMALY": 211.3177, "EPHEMERIS_TYPE": 0, "CLASSIFICATION_TYPE": "U", "NORAD_CAT_ID": 66460, "ELEMENT_SET_NO": 999, "REV_AT_EPOCH": 388, "BSTAR": -0.020969, "MEAN_MOTION_DOT": -0.02040104, "MEAN_MOTION_DDOT": 0}, "tle": {"line1": "1 66460U 25262E   25335.83335647 -.02040104  00000+0 -20969-1 0  9995", "line2": "2 66460  42.9990 135.1648 0001421 281.8222 211.3177 15.67291476  3887"}}, "geometry": {"type": "Point", "coordinates": [-158.14008655399948, 41.07839963641847]}}, {"type": "Feature", "properties": {"norad_id": 66461, "name": "STARLINK-35132", "group": "last-30-days", "lat": 41.51413328723954, "lon": -155.65705326802257, "alt_km": 366.77921627474916, "timestamp": "2025-12-02T06:27:51.801065+00:00", "meta": {"OBJECT_NAME": "STARLINK-35132", "OBJECT_ID": "2025-262F", "EPOCH": "2025-12-01T20:00:01.999008", "MEAN_MOTION": 15.67300694, "ECCENTRICITY": 0.0001431, "INCLINATION": 42.9991, "RA_OF_ASC_NODE": 135.1602, "ARG_OF_PERICENTER": 285.117, "MEAN_ANOMALY": 209.9306, "EPHEMERIS_TYPE": 0, "CLASSIFICATION_TYPE": "U", "NORAD_CAT_ID": 66461, "ELEMENT_SET_NO": 999, "REV_AT_EPOCH": 388, "BSTAR": -0.021051, "MEAN_MOTION_DOT": -0.02047767, "MEAN_MOTION_DDOT": 0}, "tle": {"line1": "1 66461U 25262F   25335.83335647 -.02047767  00000+0 -21051-1 0  9991", "line2": "2 66461  42.9991 135.1602 0001431 285.1170 209.9306 15.67300694  3889"}}, "geometry": {"type": "Point", "coordinates": [-155.65705326802257, 41.51413328723954]}}, {"type": "Feature", "properties": {"norad_id": 66462, "name": "STARLINK-35499", "group": "last-30-days", "lat": 41.89557973427615, "lon": -153.1431245730172, "alt_km": 366.74696709558884, "timestamp": "2025-12-02T06:27:51.801075+00:00", "meta": {"OBJECT_NAME": "STARLINK-35499", "OBJECT_ID": "2025-262G", "EPOCH": "2025-12-01T20:00:01.999008", "MEAN_MOTION": 15.67302388, "ECCENTRICITY": 0.0001382, "INCLINATION": 42.9992, "RA_OF_ASC_NODE": 135.1548, "ARG_OF_PERICENTER": 283.3953, "MEAN_ANOMALY": 213.5719, "EPHEMERIS_TYPE": 0, "CLASSIFICATION_TYPE": "U", "NORAD_CAT_ID": 66462, "ELEMENT_SET_NO": 999, "REV_AT_EPOCH": 388, "BSTAR": -0.02111, "MEAN_MOTION_DOT": -0.02052852, "MEAN_MOTION_DDOT": 0}, "tle": {"line1": "1 66462U 25262G   25335.83335647 -.02052852  00000+0 -21110-1 0  9999", "line2": "2 66462  42.9992 135.1548 0001382 283.3953 213.5719 15.67302388  3885"}}, "geometry": {"type": "Point", "coordinates": [-153.1431245730172, 41.89557973427615]}}, {"type": "Feature", "properties": {"norad_id": 66463, "name": "STARLINK-35463", "group": "last-30-days", "lat": 42.48970236490682, "lon": -148.03314543104946, "alt_km": 366.63663954174444, "timestamp": "2025-12-02T06:27:51.801085+00:00", "meta": {"OBJECT_NAME": "STARLINK-35463", "OBJECT_ID": "2025-262H", "EPOCH": "2025-12-01T20:00:01.999008", "MEAN_MOTION": 15.67300767, "ECCENTRICITY": 0.0001334, "INCLINATION": 42.9988, "RA_OF_ASC_NODE": 135.1447, "ARG_OF_PERICENTER": 286.2742, "MEAN_ANOMALY": 214.5301, "EPHEMERIS_TYPE": 0, "CLASSIFICATION_TYPE": "U", "NORAD_CAT_ID": 66463, "ELEMENT_SET_NO": 999, "REV_AT_EPOCH": 388, "BSTAR": -0.021119, "MEAN_MOTION_DOT": -0.02053442, "MEAN_MOTION_DDOT": 0}, "tle": {"line1": "1 66463U 25262H   25335.83335647 -.02053442  00000+0 -21119-1 0  9995", "line2": "2 66463  42.9988 135.1447 0001334 286.2742 214.5301 15.67300767  3881"}}, "geometry": {"type": "Point", "coordinates": [-148.03314543104946, 42.48970236490682]}}, {"type": "Feature", "properties": {"norad_id": 66464, "name": "STARLINK-35435", "group": "last-30-days", "lat": 42.22133078587237, "lon": -150.59965224290707, "alt_km": 366.6802240203742, "timestamp": "2025-12-02T06:27:51.801094+00:00", "meta": {"OBJECT_NAME": "STARLINK-35435", "OBJECT_ID": "2025-262J", "EPOCH": "2025-12-01T20:00:01.999008", "MEAN_MOTION": 15.67299364, "ECCENTRICITY": 0.0001425, "INCLINATION": 42.9992, "RA_OF_ASC_NODE": 135.1501, "ARG_OF_PERICENTER": 287.5821, "MEAN_ANOMALY": 211.301, "EPHEMERIS_TYPE": 0, "CLASSIFICATION_TYPE": "U", "NORAD_CAT_ID": 66464, "ELEMENT_SET_NO": 999, "REV_AT_EPOCH": 388, "BSTAR": -0.021047, "MEAN_MOTION_DOT": -0.02047268, "MEAN_MOTION_DDOT": 0}, "tle": {"line1": "1 66464U 25262J   25335.83335647 -.02047268  00000+0 -21047-1 0  9995", "line2": "2 66464  42.9992 135.1501 0001425 287.5821 211.3010 15.67299364  3883"}}, "geometry": {"type": "Point", "coordinates": [-150.59965224290707, 42.22133078587237]}}, {"type": "Feature", "properties": {"norad_id": 66465, "name": "STARLINK-35448", "group": "last-30-days", "lat": 42.85272297390378, "lon": -142.84613979516143, "alt_km": 366.65883840444803, "timestamp": "2025-12-02T06:27:51.801104+00:00", "meta": {"OBJECT_NAME": "STARLINK-35448", "OBJECT_ID": "2025-262K", "EPOCH": "2025-12-01T20:00:01.999008", "MEAN_MOTION": 15.67300171, "ECCENTRICITY": 0.0001359, "INCLINATION": 42.9991, "RA_OF_ASC_NODE": 135.1354, "ARG_OF_PERICENTER": 283.6482, "MEAN_ANOMALY": 220.9896, "EPHEMERIS_TYPE": 0, "CLASSIFICATION_TYPE": "U", "NORAD_CAT_ID": 66465, "ELEMENT_SET_NO": 999, "REV_AT_EPOCH": 388, "BSTAR": -0.021101, "MEAN_MOTION_DOT": -0.0205187, "MEAN_MOTION_DDOT": 0}, "tle": {"line1": "1 66465U 25262K   25335.83335647 -.02051870  00000+0 -21101-1 0  9991", "line2": "2 66465  42.9991 135.1354 0001359 283.6482 220.9896 15.67300171  3882"}}, "geometry": {"type": "Point", "coordinates": [-142.84613979516143, 42.85272297390378]}}]}